OBJECT_NAME,OBJECT_ID,EPOCH,MEAN_MOTION,ECCENTRICITY,INCLINATION,RA_OF_ASC_NODE,ARG_OF_PERICENTER,MEAN_ANOMALY,EPHEMERIS_TYPE,CLASSIFICATION_TYPE,NORAD_CAT_ID,ELEMENT_SET_NO,REV_AT_EPOCH,BSTAR,MEAN_MOTION_DOT,MEAN_MOTION_DDOT
COSMOS 2534 (758),2019-030A,2026-06-24T12:18:01.016064,2.13102365,.00134625,64.3690,192.3697,274.9296,83.9383,0,U,44299,999,5507,0,.105E-5,0
BEIDOU-3 IGSO-2 (C39),2019-035A,2026-06-25T16:15:04.743072,1.00264102,.00395033,55.2491,158.7880,216.5820,261.6369,0,U,44337,999,2575,0,-.65E-6,0
GPS BIII-2  (PRN 18),2019-056A,2026-06-25T13:46:59.277216,2.00570153,.00623919,55.6328,330.8088,197.6754,125.8238,0,U,44506,999,5023,0,-.105E-5,0
BEIDOU-3 M24 (C46),2019-061A,2026-06-25T20:00:34.133760,1.86229199,.00084939,54.3964,182.4358,358.5395,1.4898,0,U,44542,999,4595,0,.1E-5,0
BEIDOU-3 M23 (C45),2019-061B,2026-06-26T05:44:58.090272,1.86227611,.00058218,54.3955,182.3906,338.2299,205.4302,0,U,44543,999,4596,0,.98E-6,0
EUTELSAT 5 WEST B (EGNOS/PRN 121),2019-067A,2026-06-26T05:41:05.961120,1.00271531,.00034022,0.0624,4.4098,90.1962,260.0285,0,U,44624,999,2452,0,-.31E-6,0
BEIDOU-3 M22 (C44),2019-078A,2026-06-26T05:03:18.490752,1.86227239,.0006246,53.9269,299.5096,51.5881,308.4637,0,U,44793,999,4481,0,-.101E-5,0
BEIDOU-3 M21 (C43),2019-078B,2026-06-20T10:39:18.276192,1.86227692,.00039213,53.9054,299.6746,48.8810,311.1504,0,U,44794,999,4471,0,-.92E-6,0
COSMOS 2544 (759),2019-088A,2026-06-25T22:41:15.294624,2.13102928,.00129231,65.5707,73.4383,257.6247,102.2670,0,U,44850,999,5090,0,-.63E-6,0
BEIDOU-3 M19 (C41),2019-090A,2026-06-26T07:52:29.712288,1.86231645,.00175043,56.5668,62.4878,297.5955,244.8186,0,U,44864,999,4440,0,-.86E-6,0
BEIDOU-3 M20 (C42),2019-090B,2026-06-26T03:47:24.031392,1.86231543,.00152731,56.5685,62.5279,312.0808,205.8058,0,U,44865,999,4438,0,-.87E-6,0
BEIDOU-3 G2 (C60),2020-017A,2026-06-26T04:22:45.078816,1.00272020,.0002515,2.8828,47.4963,38.0490,334.5435,0,U,45344,999,2335,0,-.133E-5,0
COSMOS 2545 (760),2020-018A,2026-06-22T09:16:10.221888,2.13102345,.00085514,64.3518,312.2361,229.7005,130.2180,0,U,45358,999,4877,0,-.76E-6,0
BEIDOU-3 G3 (C61),2020-040A,2026-06-26T02:48:42.262848,1.00274910,.00026475,2.4697,67.4783,327.9839,31.4867,0,U,45807,999,2215,0,-.345E-5,0
GPS BIII-3  (PRN 23),2020-041A,2026-06-24T17:08:03.225408,2.00558689,.00644566,56.6750,28.6507,204.5351,155.8006,0,U,45854,999,4419,0,-.91E-6,0
GALAXY 30 (WAAS/PRN 135),2020-056C,2026-06-26T05:19:38.388576,1.00270659,.00023113,0.0265,13.9515,78.9158,136.3766,0,U,46114,999,2138,0,0,0
COSMOS 2547 (705K),2020-075A,2026-06-23T01:04:53.845824,2.13100075,.00093897,64.5998,192.2800,239.8936,120.0622,0,U,46805,999,4403,0,.94E-6,0
GPS BIII-4  (PRN 14),2020-078A,2026-06-26T05:54:20.347776,2.00565126,.00738232,53.9789,210.4109,207.4122,155.8219,0,U,46826,999,4169,0,.83E-6,0
GPS BIII-5  (PRN 11),2021-054A,2026-06-26T05:27:32.240736,2.00568733,.00256658,55.1700,332.0958,228.3477,307.7469,0,U,48859,999,3693,0,-.105E-5,0
QZS-1R (QZSS/PRN 196),2021-096A,2026-06-25T14:54:03.356352,1.00253341,.07555375,37.4786,79.4571,271.9543,279.2646,0,U,49336,999,1709,0,-.314E-5,0
GSAT0223 (GALILEO 27),2021-116A,2026-06-23T10:34:17.397696,1.70476308,.00016008,57.1590,341.5051,183.5383,174.0725,0,U,49809,999,2828,0,-.98E-6,0
GSAT0224 (GALILEO 28),2021-116B,2026-06-25T14:50:06.558144,1.70476480,.00013732,57.1582,341.4456,160.1269,206.5880,0,U,49810,999,2835,0,-.97E-6,0
COSMOS 2557 (706K),2022-075A,2026-06-26T00:35:49.657920,2.13102167,.00102576,64.2929,314.1731,273.5829,86.2889,0,U,52984,999,3090,0,-.87E-6,0
COSMOS 2559 (707K),2022-130A,2026-06-26T07:31:50.945376,2.13101803,.00127399,64.2654,314.2468,178.9915,181.0006,0,U,54031,999,2888,0,-.86E-6,0
COSMOS 2564 (761),2022-161A,2026-06-26T03:46:07.714272,2.13102114,.00122568,64.7425,192.4139,225.0447,134.9097,0,U,54377,999,2782,0,.107E-5,0
GPS BIII-6  (PRN 28),2023-009A,2026-06-25T22:24:46.712736,2.00571086,.00062645,55.1240,148.1751,317.1527,45.3707,0,U,55268,999,2542,0,.44E-6,0
BEIDOU-3 G4 (C62),2023-066A,2026-06-26T06:22:34.924800,1.00271368,.00047865,0.4767,333.8342,175.4807,0.7801,0,U,56564,999,1148,0,-.27E-5,0
NVS-01 (IRNSS-1J),2023-076A,2026-06-26T06:19:27.725376,1.00275152,.00028124,2.1448,243.9254,13.2235,241.6416,0,U,56759,999,1120,0,-.322E-5,0
COSMOS 2569 (703K),2023-114A,2026-06-25T16:48:06.561216,2.13103824,.00103392,65.3068,72.3334,296.6774,63.2538,0,U,57517,999,2244,0,-.65E-6,0
BEIDOU-3 M28 (C50),2023-207A,2026-06-25T21:22:28.660800,1.86229896,.00029999,55.7603,62.0093,352.4663,7.5702,0,U,58654,999,1700,0,-.9E-6,0
BEIDOU-3 M26 (C48),2023-207B,2026-06-25T03:37:39.027360,1.86229846,.00027384,55.7619,62.0208,322.0424,37.9767,0,U,58655,999,1697,0,-.94E-6,0
